[{"OBJECT_NAME":"STARLINK-31932","OBJECT_ID":"2024-106H","EPOCH":"2026-03-09T08:00:01.000224","MEAN_MOTION":15.27579229,"ECCENTRICITY":0.00015889,"INCLINATION":43.0026,"RA_OF_ASC_NODE":331.3327,"ARG_OF_PERICENTER":281.5974,"MEAN_ANOMALY":95.7698,"EPHEMERIS_TYPE":0,"CLASSIFICATION_TYPE":"U","NORAD_CAT_ID":59929,"ELEMENT_SET_NO":999,"REV_AT_EPOCH":577,"BSTAR":0.00020791125,"MEAN_MOTION_DOT":5.463e-5,"MEAN_MOTION_DDOT":0},{"OBJECT_NAME":"OBJECT J","OBJECT_ID":"2025-155J","EPOCH":"2026-03-09T22:09:22.347648","MEAN_MOTION":15.2758258,"ECCENTRICITY":0.00088188,"INCLINATION":97.4475,"RA_OF_ASC_NODE":37.3123,"ARG_OF_PERICENTER":150.071,"MEAN_ANOMALY":210.1035,"EPHEMERIS_TYPE":0,"CLASSIFICATION_TYPE":"U","NORAD_CAT_ID":64884,"ELEMENT_SET_NO":999,"REV_AT_EPOCH":6559,"BSTAR":0.00051444498,"MEAN_MOTION_DOT":0.00013827,"MEAN_MOTION_DDOT":0}]
